{
  "type": "FeatureCollection",
  "features": [
    {
      "type": "Feature",
      "properties": {
        "norad_id": 33986,
        "name": "COSMOS 2251 DEB",
        "group": "cosmos-2251-debris",
        "lat": 10.728520666431912,
        "lon": -58.159260677546854,
        "alt_km": 720.1143153330904,
        "timestamp": "2025-12-14T20:40:32.166188+00:00",
        "meta_object_name": "COSMOS 2251 DEB",
        "meta_object_id": "1993-036FV",
        "meta_epoch": "2025-12-14T07:52:22.145376",
        "meta_mean_motion": 14.43216548,
        "meta_eccentricity": 0.004053,
        "meta_inclination": 74.0367,
        "meta_ra_of_asc_node": 299.7223,
        "meta_arg_of_pericenter": 12.0203,
        "meta_mean_anomaly": 108.7934,
        "meta_ephemeris_type": 0,
        "meta_classification_type": "U",
        "meta_norad_cat_id": 33986,
        "meta_element_set_no": 999,
        "meta_rev_at_epoch": 88051,
        "meta_bstar": 0.00095420207,
        "meta_mean_motion_dot": 3.216e-05,
        "meta_mean_motion_ddot": 0,
        "tle_line1": "1 33986U 93036FV  25348.32803409  .00003216  00000+0  95420-3 0  9995",
        "tle_line2": "2 33986  74.0367 299.7223 0040530  12.0203 108.7934 14.43216548880514"
      },
      "geometry": {
        "type": "Point",
        "coordinates": [
          -58.159260677546854,
          10.728520666431912
        ]
      }
    },
    {
      "type": "Feature",
      "properties": {
        "norad_id": 33990,
        "name": "COSMOS 2251 DEB",
        "group": "cosmos-2251-debris",
        "lat": 67.8064802047767,
        "lon": -32.45342282721363,
        "alt_km": 1261.4946219347003,
        "timestamp": "2025-12-14T20:40:32.166199+00:00",
        "meta_object_name": "COSMOS 2251 DEB",
        "meta_object_id": "1993-036FZ",
        "meta_epoch": "2025-12-14T06:52:09.787296",
        "meta_mean_motion": 13.49997188,
        "meta_eccentricity": 0.04074985,
        "meta_inclination": 73.9289,
        "meta_ra_of_asc_node": 283.5115,
        "meta_arg_of_pericenter": 303.5432,
        "meta_mean_anomaly": 212.7141,
        "meta_ephemeris_type": 0,
        "meta_classification_type": "U",
        "meta_norad_cat_id": 33990,
        "meta_element_set_no": 999,
        "meta_rev_at_epoch": 82750,
        "meta_bstar": 0.0015077515,
        "meta_mean_motion_dot": 1.583e-05,
        "meta_mean_motion_ddot": 0,
        "tle_line1": "1 33990U 93036FZ  25348.28622439  .00001583  00000+0  15078-2 0  9992",
        "tle_line2": "2 33990  73.9289 283.5115 0407498 303.5432 212.7141 13.49997188827500"
      },
      "geometry": {
        "type": "Point",
        "coordinates": [
          -32.45342282721363,
          67.8064802047767
        ]
      }
    },
    {
      "type": "Feature",
      "properties": {
        "norad_id": 33992,
        "name": "COSMOS 2251 DEB",
        "group": "cosmos-2251-debris",
        "lat": 39.74057999754504,
        "lon": -12.575950923376569,
        "alt_km": 645.7582667185106,
        "timestamp": "2025-12-14T20:40:32.166209+00:00",
        "meta_object_name": "COSMOS 2251 DEB",
        "meta_object_id": "1993-036GB",
        "meta_epoch": "2025-12-14T07:54:51.465312",
        "meta_mean_motion": 14.66232364,
        "meta_eccentricity": 0.00516321,
        "meta_inclination": 74.024,
        "meta_ra_of_asc_node": 334.6697,
        "meta_arg_of_pericenter": 92.0487,
        "meta_mean_anomaly": 24.6622,
        "meta_ephemeris_type": 0,
        "meta_classification_type": "U",
        "meta_norad_cat_id": 33992,
        "meta_element_set_no": 999,
        "meta_rev_at_epoch": 89148,
        "meta_bstar": 0.0009024764,
        "meta_mean_motion_dot": 5.042e-05,
        "meta_mean_motion_ddot": 0,
        "tle_line1": "1 33992U 93036GB  25348.32976233  .00005042  00000+0  90248-3 0  9990",
        "tle_line2": "2 33992  74.0240 334.6697 0051632  92.0487  24.6622 14.66232364891489"
      },
      "geometry": {
        "type": "Point",
        "coordinates": [
          -12.575950923376569,
          39.74057999754504
        ]
      }
    },
    {
      "type": "Feature",
      "properties": {
        "norad_id": 33994,
        "name": "COSMOS 2251 DEB",
        "group": "cosmos-2251-debris",
        "lat": 52.74808338803802,
        "lon": -15.619444739955625,
        "alt_km": 765.4203387127072,
        "timestamp": "2025-12-14T20:40:32.166219+00:00",
        "meta_object_name": "COSMOS 2251 DEB",
        "meta_object_id": "1993-036GD",
        "meta_epoch": "2025-12-14T07:34:29.897184",
        "meta_mean_motion": 14.41215753,
        "meta_eccentricity": 0.00237092,
        "meta_inclination": 74.0416,
        "meta_ra_of_asc_node": 187.4935,
        "meta_arg_of_pericenter": 321.5405,
        "meta_mean_anomaly": 211.4564,
        "meta_ephemeris_type": 0,
        "meta_classification_type": "U",
        "meta_norad_cat_id": 33994,
        "meta_element_set_no": 999,
        "meta_rev_at_epoch": 88442,
        "meta_bstar": 0.0001175918,
        "meta_mean_motion_dot": 3.54e-06,
        "meta_mean_motion_ddot": 0,
        "tle_line1": "1 33994U 93036GD  25348.31562381  .00000354  00000+0  11759-3 0  9997",
        "tle_line2": "2 33994  74.0416 187.4935 0023709 321.5405 211.4564 14.41215753884422"
      },
      "geometry": {
        "type": "Point",
        "coordinates": [
          -15.619444739955625,
          52.74808338803802
        ]
      }
    },
    {
      "type": "Feature",
      "properties": {
        "norad_id": 33995,
        "name": "COSMOS 2251 DEB",
        "group": "cosmos-2251-debris",
        "lat": 27.562448725472176,
        "lon": -73.10821296993274,
        "alt_km": 734.3452400659562,
        "timestamp": "2025-12-14T20:40:32.166229+00:00",
        "meta_object_name": "COSMOS 2251 DEB",
        "meta_object_id": "1993-036GE",
        "meta_epoch": "2025-12-13T18:52:34.369824",
        "meta_mean_motion": 14.34780947,
        "meta_eccentricity": 0.00600372,
        "meta_inclination": 74.0608,
        "meta_ra_of_asc_node": 117.4362,
        "meta_arg_of_pericenter": 131.5634,
        "meta_mean_anomaly": 229.0689,
        "meta_ephemeris_type": 0,
        "meta_classification_type": "U",
        "meta_norad_cat_id": 33995,
        "meta_element_set_no": 999,
        "meta_rev_at_epoch": 87534,
        "meta_bstar": 0.0012089802,
        "meta_mean_motion_dot": 3.475e-05,
        "meta_mean_motion_ddot": 0,
        "tle_line1": "1 33995U 93036GE  25347.78650891  .00003475  00000+0  12090-2 0  9997",
        "tle_line2": "2 33995  74.0608 117.4362 0060037 131.5634 229.0689 14.34780947875349"
      },
      "geometry": {
        "type": "Point",
        "coordinates": [
          -73.10821296993274,
          27.562448725472176
        ]
      }
    },
    {
      "type": "Feature",
      "properties": {
        "norad_id": 33999,
        "name": "COSMOS 2251 DEB",
        "group": "cosmos-2251-debris",
        "lat": -38.60546023108187,
        "lon": -146.7709181549413,
        "alt_km": 654.1985591615003,
        "timestamp": "2025-12-14T20:40:32.166240+00:00",
        "meta_object_name": "COSMOS 2251 DEB",
        "meta_object_id": "1993-036GJ",
        "meta_epoch": "2025-12-14T03:03:17.373888",
        "meta_mean_motion": 14.83408669,
        "meta_eccentricity": 0.00444368,
        "meta_inclination": 73.9187,
        "meta_ra_of_asc_node": 228.0095,
        "meta_arg_of_pericenter": 123.2531,
        "meta_mean_anomaly": 237.2917,
        "meta_ephemeris_type": 0,
        "meta_classification_type": "U",
        "meta_norad_cat_id": 33999,
        "meta_element_set_no": 999,
        "meta_rev_at_epoch": 89271,
        "meta_bstar": 0.0013923167,
        "meta_mean_motion_dot": 0.00011613,
        "meta_mean_motion_ddot": 0,
        "tle_line1": "1 33999U 93036GJ  25348.12728442  .00011613  00000+0  13923-2 0  9997",
        "tle_line2": "2 33999  73.9187 228.0095 0044436 123.2531 237.2917 14.83408669892711"
      },
      "geometry": {
        "type": "Point",
        "coordinates": [
          -146.7709181549413,
          -38.60546023108187
        ]
      }
    },
    {
      "type": "Feature",
      "properties": {
        "norad_id": 34001,
        "name": "COSMOS 2251 DEB",
        "group": "cosmos-2251-debris",
        "lat": -35.18002540695006,
        "lon": -93.95226200591978,
        "alt_km": 762.2383358217639,
        "timestamp": "2025-12-14T20:40:32.166249+00:00",
        "meta_object_name": "COSMOS 2251 DEB",
        "meta_object_id": "1993-036GL",
        "meta_epoch": "2025-12-14T06:22:45.836256",
        "meta_mean_motion": 14.37100984,
        "meta_eccentricity": 0.0020029,
        "meta_inclination": 74.0389,
        "meta_ra_of_asc_node": 278.7813,
        "meta_arg_of_pericenter": 359.3939,
        "meta_mean_anomaly": 123.4936,
        "meta_ephemeris_type": 0,
        "meta_classification_type": "U",
        "meta_norad_cat_id": 34001,
        "meta_element_set_no": 999,
        "meta_rev_at_epoch": 88168,
        "meta_bstar": 0.00027798058,
        "meta_mean_motion_dot": 8.01e-06,
        "meta_mean_motion_ddot": 0,
        "tle_line1": "1 34001U 93036GL  25348.26580829  .00000801  00000+0  27798-3 0  9995",
        "tle_line2": "2 34001  74.0389 278.7813 0020029 359.3939 123.4936 14.37100984881687"
      },
      "geometry": {
        "type": "Point",
        "coordinates": [
          -93.95226200591978,
          -35.18002540695006
        ]
      }
    }
  ]
}